{
    "links": {
        "self": "http://www.neowsapp.com/rest/v1/neo/3776016?api_key=iIulBulltgU6a56xZRHN4H3l9WmuAYTsLGpBGhQ2"
    },
    "id": "3776016",
    "neo_reference_id": "3776016",
    "name": "(2017 MD3)",
    "designation": "2017 MD3",
    "nasa_jpl_url": "http://ssd.jpl.nasa.gov/sbdb.cgi?sstr=3776016",
    "absolute_magnitude_h": 20.8,
    "estimated_diameter": {
        "kilometers": {
            "estimated_diameter_min": 0.1838886721,
            "estimated_diameter_max": 0.411187571
        },
        "meters": {
            "estimated_diameter_min": 183.8886720703,
            "estimated_diameter_max": 411.1875710413
        },
        "miles": {
            "estimated_diameter_min": 0.1142630881,
            "estimated_diameter_max": 0.2555000322
        },
        "feet": {
            "estimated_diameter_min": 603.309310875,
            "estimated_diameter_max": 1349.040630575
        }
    },
    "is_potentially_hazardous_asteroid": false,
    "close_approach_data": [
        {
            "close_approach_date": "2017-06-21",
            "close_approach_date_full": "2017-Jun-21 03:12",
            "epoch_date_close_approach": 1498014720000,
            "relative_velocity": {
                "kilometers_per_second": "3.7136793248",
                "kilometers_per_hour": "13369.2455692532",
                "miles_per_hour": "8307.1292816285"
            },
            "miss_distance": {
                "astronomical": "0.280692915",
                "lunar": "109.189543935",
                "kilometers": "41991062.20809105",
                "miles": "26092036.15231449"
            },
            "orbiting_body": "Earth"
        }
    ],
    "orbital_data": {
        "orbit_id": "13",
        "orbit_determination_date": "2017-08-09 06:16:53",
        "first_observation_date": "2017-06-23",
        "last_observation_date": "2017-08-01",
        "data_arc_in_days": 39,
        "observations_used": 68,
        "orbit_uncertainty": "6",
        "minimum_orbit_intersection": ".243912",
        "jupiter_tisserand_invariant": "3.502",
        "epoch_osculation": "2459000.5",
        "eccentricity": ".4400942062820827",
        "semi_major_axis": "2.230725103565964",
        "inclination": "5.937121519877137",
        "ascending_node_longitude": "119.255403435312",
        "orbital_period": "1216.935355658944",
        "perihelion_distance": "1.248995909678584",
        "perihelion_argument": "140.2785703632241",
        "aphelion_distance": "3.212454297453343",
        "perihelion_time": "2459123.851665678657",
        "mean_anomaly": "323.5094835253009",
        "mean_motion": ".2958250808688748",
        "equinox": "J2000",
        "orbit_class": {
            "orbit_class_type": "AMO",
            "orbit_class_description": "Near-Earth asteroid orbits similar to that of 1221 Amor",
            "orbit_class_range": "1.017 AU < q (perihelion) < 1.3 AU"
        }
    },
    "is_sentry_object": false
}